QIANFAN-57              
1 62787U 25016C   25358.74955360  .00000174  00000+0  25074-3 0  9998
2 62787  88.9788 101.9616 0002536 112.6986 247.4434 13.50980211 48823
QIANFAN-58              
1 62788U 25016D   25358.79478336  .00000187  00000+0  27076-3 0  9995
2 62788  88.9757 101.7849 0012240 311.1301  48.8793 13.50982034 48877
QIANFAN-59              
1 62789U 25016E   25358.81942830  .00000178  00000+0  25687-3 0  9990
2 62789  88.9781 101.8588 0012649 315.3326  44.6805 13.50983619 48870
QIANFAN-60              
1 62790U 25016F   25358.77838767  .00000068  00000+0  86909-4 0  9993
2 62790  88.9762 101.8323 0014087 311.0774  48.9159 13.50987150 48857
QIANFAN-61              
1 62791U 25016G   25358.81120648  .00000180  00000+0  26048-3 0  9993
2 62791  88.9829 101.9999 0013065 310.5745  49.4268 13.50983902 48879
QIANFAN-62              
1 62792U 25016H   25358.81534955  .00000175  00000+0  25277-3 0  9991
2 62792  88.9776 101.8614 0014447 310.6954  49.2942 13.50980503 48862
QIANFAN-63              
1 62793U 25016J   25358.84000242  .00000188  00000+0  27301-3 0  9996
2 62793  88.9782 101.8113 0014569 316.4909  43.5092 13.50987251 48908
QIANFAN-64              
1 62794U 25016K   25358.80709098  .00000181  00000+0  26182-3 0  9997
2 62794  88.9769 101.7870 0012429 309.1684  50.8362 13.50982207 48890
